OBJECT_NAME,OBJECT_ID,EPOCH,MEAN_MOTION,ECCENTRICITY,INCLINATION,RA_OF_ASC_NODE,ARG_OF_PERICENTER,MEAN_ANOMALY,EPHEMERIS_TYPE,CLASSIFICATION_TYPE,NORAD_CAT_ID,ELEMENT_SET_NO,REV_AT_EPOCH,BSTAR,MEAN_MOTION_DOT,MEAN_MOTION_DDOT
SL-16 R/B,1994-077B,2026-06-30T23:17:58.291584,14.15578105,.00037493,70.9832,114.1648,315.2314,44.8506,0,U,23405,999,63226,-.1207077E-5,-.5E-6,0
ARIANE 40+ R/B,1995-021B,2026-06-30T23:23:10.622400,14.39840908,.00073249,98.4408,251.8500,153.8333,19.0857,0,U,23561,999,63554,.10418862E-3,.284E-5,0
SL-16 R/B,1995-058B,2026-06-30T11:43:32.690784,14.15511390,.00145542,71.0229,303.4314,302.1108,57.8602,0,U,23705,999,58381,-.78835785E-4,-.202E-5,0
SL-16 R/B,1996-051B,2026-06-30T11:41:22.529184,14.12450647,.00166187,70.7654,296.5019,317.7414,42.2424,0,U,24298,999,53757,.1022439E-3,.14E-5,0
ORBVIEW 2 (SEASTAR),1997-037A,2026-06-30T23:02:05.581248,14.35560603,.0003338,98.8699,349.3612,88.9331,271.2236,0,U,24883,999,52472,.1044587E-3,.254E-5,0
SL-16 R/B,1998-043G,2026-06-30T20:01:06.663360,14.26070763,.00107272,98.8371,136.1111,50.6799,309.5330,0,U,25400,999,45511,.35382743E-4,.39E-6,0
SL-16 R/B,1998-045B,2026-06-30T17:26:27.832128,14.16206025,.0008827,71.0126,303.8547,224.4904,135.5511,0,U,25407,999,44310,.14420528E-3,.238E-5,0
ISS (ZARYA),1998-067A,2026-06-30T20:43:03.172224,15.49494077,.00043098,51.6310,232.3923,252.2804,107.7714,0,U,25544,999,57387,.11295767E-3,.5885E-4,0
CZ-4B R/B,1999-025C,2026-06-30T13:27:46.104192,14.18285627,.00374695,98.6477,223.0626,21.8856,135.4833,0,U,25732,999,40416,.43443441E-4,.47E-6,0
OKEAN-O,1999-039A,2026-06-30T14:16:14.162304,14.80482731,.00012232,97.9310,240.2383,70.1897,289.9446,0,U,25860,999,45109,.82099396E-4,.576E-5,0
SL-16 R/B,1999-039B,2026-06-30T16:06:53.373312,14.81858131,.00134581,97.9833,240.4959,248.7377,111.2399,0,U,25861,999,45359,.71502947E-4,.512E-5,0
DELTA 2 R/B,1999-041E,2026-06-30T11:34:33.137472,14.12040959,.05010571,51.7621,210.6838,321.3100,35.2912,0,U,25876,999,37896,.23075768E-3,.1199E-4,0
HELIOS 1B,1999-064A,2026-06-30T06:59:25.159488,14.88040231,.00024164,98.1603,86.8098,72.6759,287.4721,0,U,25977,999,70200,.15919551E-3,.1404E-4,0
TERRA,1999-068A,2026-06-30T22:15:11.508192,14.61113975,.00026279,97.9449,230.9283,152.3443,309.8686,0,U,25994,999,41161,.970907E-4,.433E-5,0
SL-16 R/B,2000-006B,2026-06-30T11:43:53.657472,14.15840386,.00163982,71.0013,220.6566,1.8628,358.2553,0,U,26070,999,36452,.90613785E-4,.131E-5,0
TITAN 4B R/B,2000-047B,2026-06-30T23:14:19.138848,15.10271887,.00458533,67.9891,81.7816,273.1946,86.3958,0,U,26474,999,41001,.17800749E-3,.2853E-4,0
ENVISAT,2002-009A,2026-06-30T20:51:44.857152,14.39067858,.00013817,98.3840,132.8829,85.7542,295.4186,0,U,27386,999,27545,.39661342E-4,.8E-6,0
IDEFIX & ARIANE 42P R/B,2002-021B,2026-06-30T19:59:58.107552,14.31088196,.00110211,98.5943,119.1687,209.8360,150.2196,0,U,27422,999,26020,.98458158E-4,.216E-5,0
AQUA,2002-022A,2026-06-30T22:41:08.839680,14.62178762,.00006951,98.4284,151.5035,75.4541,342.4000,0,U,27424,999,28528,.16955776E-3,.804E-5,0
CZ-4B R/B,2002-024C,2026-06-30T13:24:18.775296,14.14566409,.00510772,98.8693,234.2915,63.0494,102.3867,0,U,27432,999,24519,.46935802E-4,.47E-6,0
MIDORI II (ADEOS-II),2002-056A,2026-06-30T10:31:12.239904,14.29356413,.00019929,98.7885,140.8112,58.8087,301.3290,0,U,27597,999,22640,.10944878E-3,.233E-5,0
H-2A R/B,2002-056E,2026-06-30T19:42:09.940896,14.33827760,.00699439,98.3318,137.9989,183.5777,195.9335,0,U,27601,999,23032,.82572201E-4,.194E-5,0
CZ-4B R/B,2003-049C,2026-06-30T23:36:55.016640,14.55108676,.0046989,98.6900,181.3799,245.4136,114.2159,0,U,28059,999,20307,.78527688E-4,.292E-5,0
CZ-2C R/B,2004-012C,2026-06-30T18:35:08.050272,15.81773219,.00108841,97.7076,259.0453,235.1434,124.8811,0,U,28222,999,22204,.67577223E-3,.1378E-2,0
SL-16 R/B,2004-021B,2026-06-30T21:06:22.910976,14.14609521,.00066975,71.0011,354.9523,237.7937,122.2537,0,U,28353,999,13884,.16064414E-3,.261E-5,0
CZ-4B R/B,2004-035C,2026-06-30T14:22:38.912736,15.30808983,.00288833,97.3357,214.5224,287.7282,72.0807,0,U,28415,999,19717,.23535636E-3,.7018E-4,0
CZ-2C R/B,2004-046B,2026-06-30T17:22:43.466016,14.27029546,.01392604,98.1934,89.6584,180.0781,180.0403,0,U,28480,999,12462,.50985592E-4,.97E-6,0
ARIANE 5 R/B,2004-049H,2026-06-30T22:32:05.031168,14.85465108,.0083473,98.2730,354.7237,344.9285,14.9443,0,U,28499,999,16260,.69348456E-4,.571E-5,0
CZ-2D R/B,2005-024B,2026-06-30T14:26:34.961856,15.71047423,.00007453,97.3472,201.7131,357.6269,2.4990,0,U,28738,999,15744,.49777373E-3,.6261E-3,0
ALOS (DAICHI),2006-002A,2026-06-30T10:21:03.554496,14.70076296,.00009596,98.1330,136.9579,60.7063,299.4238,0,U,28931,999,9004,.18444089E-3,.1058E-4,0
